NORAD_CAT_ID,OBJECT_NAME,OBJECT_TYPE,EPOCH,MEAN_MOTION,ECCENTRICITY,INCLINATION,RA_OF_ASC_NODE,ARG_OF_PERICENTER,MEAN_ANOMALY,BSTAR,MEAN_MOTION_DOT,MEAN_MOTION_DDOT,TLE_LINE0,TLE_LINE1,TLE_LINE2,SEMIMAJOR_AXIS,PERIOD,APOGEE,PERIGEE,DECAYED
55674.0,STARLINK-5462,PAYLOAD,2024-03-03 11:57:15,14.98333562,0.0003008,69.9998,220.5138,270.4454,89.636,-8.6803e-06,-1.97e-06,0.0,0 STARLINK-5462,1 55674U 23021AY  24063.49809521 -.00000197  00000-0 -86803-5 0  9997,2 55674  69.9998 220.5138 0003008 270.4454  89.6360 14.98333562 58714,6950.182,96.107,574.137,569.956,0.0
55674.0,STARLINK-5462,PAYLOAD,2024-03-03 15:09:31,14.98333331,0.0003012,69.9998,220.1772,270.4463,89.6351,-1.0681e-05,-2.2e-06,0.0,0 STARLINK-5462,1 55674U 23021AY  24063.63161503 -.00000220  00000-0 -10681-4 0  9991,2 55674  69.9998 220.1772 0003012 270.4463  89.6351 14.98333331 59039,6950.183,96.107,574.141,569.954,0.0
55674.0,STARLINK-5462,PAYLOAD,2024-03-03 19:57:55,14.98336197,0.0002992,69.9997,219.6723,270.7174,89.3642,1.2372e-05,5.5e-07,0.0,0 STARLINK-5462,1 55674U 23021AY  24063.83189196  .00000055  00000-0  12372-4 0  9994,2 55674  69.9997 219.6723 0002992 270.7174  89.3642 14.98336197 59061,6950.174,96.107,574.118,569.959,0.0
55674.0,STARLINK-5462,PAYLOAD,2024-03-04 11:59:15,14.9833548,0.0003027,69.9994,217.9877,269.3209,90.7603,9.6547e-05,1.059e-05,0.0,0 STARLINK-5462,1 55674U 23021AY  24064.49948750  .00001059  00000-0  96547-4 0  9997,2 55674  69.9994 217.9877 0003027 269.3209  90.7603 14.98335480 58866,6950.176,96.107,574.145,569.937,0.0
55674.0,STARLINK-5462,PAYLOAD,2024-03-04 13:35:23,14.98335134,0.0003031,69.9994,217.8194,269.3197,90.7615,9.0267e-05,9.84e-06,0.0,0 STARLINK-5462,1 55674U 23021AY  24064.56624751  .00000984  00000-0  90267-4 0  9996,2 55674  69.9994 217.8194 0003031 269.3197  90.7615 14.98335134 59172,6950.177,96.107,574.149,569.935,0.0
55674.0,STARLINK-5462,PAYLOAD,2024-03-04 19:59:55,14.98338405,0.0003029,69.9997,217.1469,269.958,90.1232,0.00011959,1.334e-05,0.0,0 STARLINK-5462,1 55674U 23021AY  24064.83328383  .00001334  00000-0  11959-3 0  9998,2 55674  69.9997 217.1469 0003029 269.9580  90.1232 14.98338405 59210,6950.167,96.106,574.137,569.927,0.0
55674.0,STARLINK-5462,PAYLOAD,2024-03-05 13:37:25,14.9832295,0.0002575,70.0021,215.2997,257.7151,102.372,-7.7503e-05,-1.017e-05,0.0,0 STARLINK-5462,1 55674U 23021AY  24065.56765998 -.00001017  00000-0 -77503-4 0  9994,2 55674  70.0021 215.2997 0002575 257.7151 102.3720 14.98322950 59328,6950.215,96.107,573.869,570.29,0.0
55674.0,STARLINK-5462,PAYLOAD,2024-03-05 20:01:58,14.98319848,0.0002613,70.0014,214.6254,260.2629,99.8235,-0.00010132,-1.301e-05,0.0,0 STARLINK-5462,1 55674U 23021AY  24065.83470346 -.00001301  00000-0 -10132-3 0  9994,2 55674  70.0014 214.6254 0002613 260.2629  99.8235 14.98319848 59065,6950.224,96.108,573.905,570.273,0.0
55674.0,STARLINK-5462,PAYLOAD,2024-03-06 12:03:18,14.98334439,0.000302,70.0,212.9396,269.0306,91.0507,-6.0231e-06,-1.65e-06,0.0,0 STARLINK-5462,1 55674U 23021AY  24066.50229185 -.00000165  00000-0 -60231-5 0  9996,2 55674  70.0000 212.9396 0003020 269.0306  91.0507 14.98334439 59160,6950.179,96.107,574.143,569.945,0.0
55674.0,STARLINK-5462,PAYLOAD,2024-03-06 13:39:26,14.98334495,0.0002991,70.0002,212.7713,268.5043,91.5773,8.2778e-07,-8.3e-07,0.0,0 STARLINK-5462,1 55674U 23021AY  24066.56905156 -.00000083  00000-0  82778-6 0  9990,2 55674  70.0002 212.7713 0002991 268.5043  91.5773 14.98334495 59477,6950.179,96.107,574.123,569.965,0.0
55674.0,STARLINK-5462,PAYLOAD,2024-03-07 15:17:36,14.98316515,0.0002858,70.0003,210.0781,269.191,90.8922,5.2994e-05,5.39e-06,0.0,0 STARLINK-5462,1 55674U 23021AY  24067.63722313  .00000539  00000-0  52994-4 0  9991,2 55674  70.0003 210.0781 0002858 269.1910  90.8922 14.98316515 59635,6950.235,96.108,574.086,570.113,0.0
55674.0,STARLINK-5462,PAYLOAD,2024-03-08 12:07:20,14.98332561,0.0002965,69.9997,207.889,265.1112,94.9708,-1.8728e-05,-3.16e-06,0.0,0 STARLINK-5462,1 55674U 23021AY  24068.50509800 -.00000316  00000-0 -18728-4 0  9994,2 55674  69.9997 207.8890 0002965 265.1112  94.9708 14.98332561 59465,6950.185,96.107,574.111,569.989,0.0
55674.0,STARLINK-5462,PAYLOAD,2024-03-08 15:19:36,14.98336693,0.0002978,69.9998,207.5522,263.3977,96.6843,1.9582e-05,1.41e-06,0.0,0 STARLINK-5462,1 55674U 23021AY  24068.63861397  .00000141  00000-0  19582-4 0  9993,2 55674  69.9998 207.5522 0002978 263.3977  96.6843 14.98336693 59782,6950.172,96.107,574.107,569.967,0.0
55674.0,STARLINK-5462,PAYLOAD,2024-03-09 02:32:30,14.98353589,0.0004172,70.0022,206.3734,269.3098,90.7583,0.00025621,2.967e-05,0.0,0 STARLINK-5462,1 55674U 23021AY  24069.10591248  .00002967  00000-0  25621-3 0  9999,2 55674  70.0022 206.3734 0004172 269.3098  90.7583 14.98353589 59557,6950.12,96.105,574.885,569.085,0.0
55674.0,STARLINK-5462,PAYLOAD,2024-03-09 12:09:21,14.98327746,0.0003037,69.9998,205.3642,269.2998,90.7813,0.00014023,1.58e-05,0.0,0 STARLINK-5462,1 55674U 23021AY  24069.50649496  .00001580  00000-0  14023-3 0  9996,2 55674  69.9998 205.3642 0003037 269.2998  90.7813 14.98327746 59619,6950.2,96.107,574.176,569.954,0.0
55674.0,STARLINK-5462,PAYLOAD,2024-03-09 18:33:53,14.98331217,0.0002954,69.9999,204.6909,268.2445,91.8376,0.00015915,1.807e-05,0.0,0 STARLINK-5462,1 55674U 23021AY  24069.77353206  .00001807  00000-0  15915-3 0  9999,2 55674  69.9999 204.6909 0002954 268.2445  91.8376 14.98331217 59952,6950.189,96.107,574.107,570.001,0.0
55674.0,STARLINK-5462,PAYLOAD,2024-03-10 12:11:22,14.98331985,0.0002916,70.0,202.8403,268.8453,91.2372,-4.2533e-05,-6e-06,0.0,0 STARLINK-5462,1 55674U 23021AY  24070.50789690 -.00000600  00000-0 -42533-4 0  9991,2 55674  70.0000 202.8403 0002916 268.8453  91.2372 14.98331985 59761,6950.187,96.107,574.078,570.025,0.0
55674.0,STARLINK-5462,PAYLOAD,2024-03-10 18:35:54,14.98334759,0.0003024,69.9996,202.1666,267.5591,92.5222,-1.3174e-05,-2.5e-06,0.0,0 STARLINK-5462,1 55674U 23021AY  24070.77493350 -.00000250  00000-0 -13174-4 0  9995,2 55674  69.9996 202.1666 0003024 267.5591  92.5222 14.98334759 60106,6950.178,96.107,574.145,569.941,0.0
55674.0,STARLINK-5462,PAYLOAD,2024-03-11 12:13:22,14.98333916,0.000297,69.9997,200.3148,268.9027,91.1792,3.205e-05,2.89e-06,0.0,0 STARLINK-5462,1 55674U 23021AY  24071.50929112  .00000289  00000-0  32050-4 0  9991,2 55674  69.9997 200.3148 0002970 268.9027  91.1792 14.98333916 59918,6950.181,96.107,574.11,569.982,0.0
55674.0,STARLINK-5462,PAYLOAD,2024-03-12 12:15:23,14.98328851,0.0002967,70.0004,197.7912,271.9653,88.1167,3.6395e-05,3.41e-06,0.0,0 STARLINK-5462,1 55674U 23021AY  24072.51069310  .00000341  00000-0  36395-4 0  9993,2 55674  70.0004 197.7912 0002967 271.9653  88.1167 14.98328851 60065,6950.196,96.107,574.124,569.999,0.0
55674.0,STARLINK-5462,PAYLOAD,2024-03-13 12:17:24,14.98333312,0.000298,70.0005,195.2668,272.6019,87.4799,2.3253e-05,1.84e-06,0.0,0 STARLINK-5462,1 55674U 23021AY  24073.51208968  .00000184  00000-0  23253-4 0  9992,2 55674  70.0005 195.2668 0002980 272.6019  87.4799 14.98333312 60214,6950.183,96.107,574.119,569.976,0.0
55674.0,STARLINK-5462,PAYLOAD,2024-03-14 12:19:25,14.98331433,0.0002898,70.0003,192.7412,261.6709,98.4122,4.048e-05,3.9e-06,0.0,0 STARLINK-5462,1 55674U 23021AY  24074.51348769  .00000390  00000-0  40480-4 0  9997,2 55674  70.0003 192.7412 0002898 261.6709  98.4122 14.98331433 60363,6950.188,96.107,574.068,570.039,0.0
55674.0,STARLINK-5462,PAYLOAD,2024-03-15 12:21:26,14.98330086,0.0002859,70.0008,190.2173,262.3353,97.7482,-9.0219e-06,-2.01e-06,0.0,0 STARLINK-5462,1 55674U 23021AY  24075.51488958 -.00000201  00000-0 -90219-5 0  9992,2 55674  70.0008 190.2173 0002859 262.3353  97.7482 14.98330086 60516,6950.193,96.107,574.045,570.071,0.0
55674.0,STARLINK-5462,PAYLOAD,2024-03-16 13:59:35,14.98327425,0.000292,70.0009,187.525,265.0124,95.0702,1.4471e-05,8e-07,0.0,0 STARLINK-5462,1 55674U 23021AY  24076.58305120  .00000080  00000-0  14471-4 0  9997,2 55674  70.0009 187.5250 0002920 265.0124  95.0702 14.98327425 60976,6950.201,96.107,574.095,570.036,0.0
55674.0,STARLINK-5462,PAYLOAD,2024-03-16 17:11:51,14.98328693,0.0002879,70.0011,187.1889,264.6776,95.4055,2.6377e-05,2.22e-06,0.0,0 STARLINK-5462,1 55674U 23021AY  24076.71657026  .00000222  00000-0  26377-4 0  9993,2 55674  70.0011 187.1889 0002879 264.6776  95.4055 14.98328693 60696,6950.197,96.107,574.063,570.061,0.0
55674.0,STARLINK-5462,PAYLOAD,2024-03-17 14:01:36,14.98331444,0.000292,70.0011,185.0,266.334,93.7485,6.6104e-05,6.96e-06,0.0,0 STARLINK-5462,1 55674U 23021AY  24077.58444725  .00000696  00000-0  66104-4 0  9996,2 55674  70.0011 185.0000 0002920 266.3340  93.7485 14.98331444 61126,6950.188,96.107,574.083,570.024,0.0
55674.0,STARLINK-5462,PAYLOAD,2024-03-17 17:13:52,14.98333856,0.0002885,70.0012,184.6636,265.2258,94.8572,8.9645e-05,9.77e-06,0.0,0 STARLINK-5462,1 55674U 23021AY  24077.71796482  .00000977  00000-0  89645-4 0  9998,2 55674  70.0012 184.6636 0002885 265.2258  94.8572 14.98333856 60849,6950.181,96.107,574.051,570.041,0.0
55674.0,STARLINK-5462,PAYLOAD,2024-03-18 10:51:21,14.98329604,0.0002856,70.0012,182.8121,262.5454,97.538,3.5473e-05,3.3e-06,0.0,0 STARLINK-5462,1 55674U 23021AY  24078.45232801  .00000330  00000-0  35473-4 0  9993,2 55674  70.0012 182.8121 0002856 262.5454  97.5380 14.98329604 60959,6950.194,96.107,574.044,570.074,0.0
55674.0,STARLINK-5462,PAYLOAD,2024-03-19 10:53:21,14.98336917,0.0002798,70.0013,180.2874,260.0648,100.0195,4.4098e-05,4.33e-06,0.0,0 STARLINK-5462,1 55674U 23021AY  24079.45372103  .00000433  00000-0  44098-4 0  9991,2 55674  70.0013 180.2874 0002798 260.0648 100.0195 14.98336917 61400,6950.172,96.107,573.981,570.092,0.0
55674.0,STARLINK-5462,PAYLOAD,2024-03-19 12:29:29,14.9833786,0.0002791,70.0014,180.1193,261.0814,99.003,5.6801e-05,5.85e-06,0.0,0 STARLINK-5462,1 55674U 23021AY  24079.52048004  .00000585  00000-0  56801-4 0  9992,2 55674  70.0014 180.1193 0002791 261.0814  99.0030 14.98337860 61114,6950.169,96.106,573.973,570.094,0.0
